H1 CPF  1  HTS 2022  9 11 12  7541 larets           NONE
H2  0304206 5557    27944 2022 09 11  0  0  0 2022 09 16  0  0  0   180 1 1  0 0 0
H5  0.0560 
H9 
10 0 59833  72360.00000  0     375835.249   -6862275.186    1657235.719
10 0 59833  72540.00000  0      96272.874   -7063215.836     336130.288
10 0 59833  72720.00000  0    -188595.956   -7000476.607    -997266.443
10 0 59833  72900.00000  0    -461553.587   -6676644.041   -2294255.696
10 0 59833  73080.00000  0    -706033.733   -6104246.555   -3507568.261
10 0 59833  73260.00000  0    -906976.128   -5305219.034   -4593098.072
10 0 59833  73440.00000  0   -1051601.317   -4309998.067   -5511492.009
10 0 59833  73620.00000  0   -1130068.128   -3156305.512   -6229533.590
10 0 59833  73800.00000  0   -1135985.871   -1887683.854   -6721285.683
10 0 59833  73980.00000  0   -1066762.827    -551845.396   -6968965.047
10 0 59833  74160.00000  0    -923780.649     801100.345   -6963536.470
10 0 59833  74340.00000  0    -712386.993    2120484.740   -6705022.200
10 0 59833  74520.00000  0    -441707.501    3356932.923   -6202526.209
10 0 59833  74700.00000  0    -124279.942    4464187.725   -5473970.501
10 0 59833  74880.00000  0     224482.871    5400849.962   -4545532.052
10 0 59833  75060.00000  0     586983.141    6131973.907   -3450781.596
10 0 59833  75240.00000  0     944258.127    6630450.862   -2229530.186
10 0 59833  75420.00000  0    1276896.815    6878110.702    -926410.304
10 0 59833  75600.00000  0    1566010.479    6866477.073     410767.844
10 0 59833  75780.00000  0    1794205.582    6597119.480    1732819.178
10 0 59833  75960.00000  0    1946502.510    6081577.294    2991058.661
10 0 59833  76140.00000  0    2011152.531    5340860.954    4139162.284
10 0 59833  76320.00000  0    1980307.343    4404551.928    5134931.525
10 0 59833  76500.00000  0    1850503.615    3309544.746    5941875.308
10 0 59833  76680.00000  0    1622940.865    2098515.483    6530535.360
10 0 59833  76860.00000  0    1303546.537     818199.013    6879530.230
10 0 59833  77040.00000  0     902825.284    -482456.391    6976285.777
10 0 59833  77220.00000  0     435502.137   -1754174.814    6817447.565
10 0 59833  77400.00000  0     -80029.771   -2949225.523    6408975.060
10 0 59833  77580.00000  0    -622437.767   -4023218.341    5765908.713
10 0 59833  77760.00000  0   -1168322.378   -4936753.742    4911821.703
10 0 59833  77940.00000  0   -1693208.497   -5656884.730    3877986.095
10 0 59833  78120.00000  0   -2172623.432   -6158345.029    2702250.574
10 0 59833  78300.00000  0   -2583210.126   -6424472.599    1427657.501
10 0 59833  78480.00000  0   -2903821.856   -6447787.008     100854.051
10 0 59833  78660.00000  0   -3116541.587   -6230193.679   -1229643.092
10 0 59833  78840.00000  0   -3207575.810   -5782802.471   -2515255.977
10 0 59833  79020.00000  0   -3167978.386   -5125369.613   -3709147.540
10 0 59833  79200.00000  0   -2994166.279   -4285394.349   -4767937.518
10 0 59833  79380.00000  0   -2688204.463   -3296926.990   -5653257.554
10 0 59833  79560.00000  0   -2257855.844   -2199156.485   -6333095.392
10 0 59833  79740.00000  0   -1716396.732   -1034842.295   -6782893.540
10 0 59833  79920.00000  0   -1082206.367     151344.222   -6986374.549
10 0 59833  80100.00000  0    -378152.171    1314503.823   -6936082.295
10 0 59833  80280.00000  0     369212.972    2411167.834   -6633642.982
10 0 59833  80460.00000  0    1130621.004    3400890.817   -6089742.541
10 0 59833  80640.00000  0    1875207.519    4247736.289   -5323809.717
10 0 59833  80820.00000  0    2571741.684    4921603.086   -4363398.694
10 0 59833  81000.00000  0    3189927.623    5399348.644   -3243275.083
10 0 59833  81180.00000  0    3701725.185    5665656.202   -2004213.379
10 0 59833  81360.00000  0    4082631.463    5713597.394    -691534.110
10 0 59833  81540.00000  0    4312852.212    5544850.987     646573.255
10 0 59833  81720.00000  0    4378296.382    5169553.759    1960871.634
10 0 59833  81900.00000  0    4271336.305    4605787.376    3202954.428
10 0 59833  82080.00000  0    3991291.298    3878726.894    4327100.711
10 0 59833  82260.00000  0    3544603.345    3019490.361    5292008.983
10 0 59833  82440.00000  0    2944702.760    2063763.770    6062338.870
10 0 59833  82620.00000  0    2211570.288    1050270.036    6609991.833
10 0 59833  82800.00000  0    1371032.638      19164.200    6915097.284
10 0 59833  82980.00000  0     453818.507    -989572.683    6966688.570
10 0 59833  83160.00000  0    -505587.114   -1937689.214    6763061.786
10 0 59833  83340.00000  0   -1470251.379   -2790115.316    6311806.481
10 0 59833  83520.00000  0   -2402213.886   -3516256.486    5629514.729
10 0 59833  83700.00000  0   -3263975.917   -4091095.653    4741191.773
10 0 59833  83880.00000  0   -4020021.474   -4496070.990    3679365.664
10 0 59833  84060.00000  0   -4638294.206   -4719687.452    2482909.654
10 0 59833  84240.00000  0   -5091565.369   -4757840.476    1195623.058
10 0 59833  84420.00000  0   -5358634.526   -4613834.196    -135386.645
10 0 59833  84600.00000  0   -5425299.167   -4298088.956   -1461457.165
10 0 59833  84780.00000  0   -5285041.352   -3827552.542   -2734187.675
10 0 59833  84960.00000  0   -4939391.885   -3224844.076   -3907232.378
10 0 59833  85140.00000  0   -4397962.979   -2517185.138   -4937989.013
10 0 59833  85320.00000  0   -3678157.078   -1735176.245   -5789121.408
10 0 59833  85500.00000  0   -2804571.156    -911479.018   -6429863.843
10 0 59833  85680.00000  0   -1808129.553     -79464.041   -6837071.478
10 0 59833  85860.00000  0    -724982.124     728117.599   -6995994.103
10 0 59833  86040.00000  0     404785.949    1480391.794   -6900767.871
10 0 59833  86220.00000  0    1538597.478    2149514.414   -6554628.430
10 0 59834      0.00000  0    2632950.911    2711689.946   -5969839.162
10 0 59834    180.00000  0    3645066.731    3148024.509   -5167317.907
10 0 59834    360.00000  0    4534556.994    3445182.729   -4175967.312
10 0 59834    540.00000  0    5265067.190    3595826.103   -3031710.103
10 0 59834    720.00000  0    5805815.037    3598805.442   -1776236.905
10 0 59834    900.00000  0    6132950.294    3459093.697    -455501.711
10 0 59834   1080.00000  0    6230660.153    3187449.915     881984.966
10 0 59834   1260.00000  0    6091953.254    2799825.229    2186992.943
10 0 59834   1440.00000  0    5719070.343    2316542.002    3411455.161
10 0 59834   1620.00000  0    5123496.268    1761287.833    4510308.507
10 0 59834   1800.00000  0    4325569.972    1159979.009    5443198.898
10 0 59834   1980.00000  0    3353727.545     539558.524    6175977.739
10 0 59834   2160.00000  0    2243413.661     -73209.775    6681936.677
10 0 59834   2340.00000  0    1035728.882    -652889.711    6942738.427
10 0 59834   2520.00000  0    -224131.177   -1176422.272    6949040.201
10 0 59834   2700.00000  0   -1488590.594   -1624037.749    6700789.897
10 0 59834   2880.00000  0   -2709494.072   -1979997.407    6207196.509
10 0 59834   3060.00000  0   -3839935.672   -2233140.238    5486391.807
10 0 59834   3240.00000  0   -4836072.662   -2377227.863    4564789.140
10 0 59834   3420.00000  0   -5658850.452   -2411072.319    3476133.894
10 0 59834   3600.00000  0   -6275562.833   -2338437.456    2260281.596
10 0 59834   3780.00000  0   -6661188.191   -2167724.451     961743.320
10 0 59834   3960.00000  0   -6799435.554   -1911453.648    -371963.896
10 0 59834   4140.00000  0   -6683437.425   -1585563.331   -1692089.509
10 0 59834   4320.00000  0   -6316055.029   -1208565.103   -2950466.581
10 0 59834   4500.00000  0   -5709783.716    -800603.262   -4101289.930
10 0 59834   4680.00000  0   -4886273.174    -382465.337   -5102782.402
10 0 59834   4860.00000  0   -3875492.375      25407.292   -5918684.051
10 0 59834   5040.00000  0   -2714585.483     403858.674   -6519512.772
10 0 59834   5220.00000  0   -1446480.015     735866.476   -6883562.637
10 0 59834   5400.00000  0    -118305.445    1007266.357   -6997629.430
10 0 59834   5580.00000  0    1220323.584    1207331.387   -6857453.409
10 0 59834   5760.00000  0    2519113.673    1329188.175   -6467885.710
10 0 59834   5940.00000  0    3728949.795    1370058.884   -5842761.243
10 0 59834   6120.00000  0    4803738.763    1331317.703   -5004470.499
10 0 59834   6300.00000  0    5702184.811    1218359.172   -3983238.338
10 0 59834   6480.00000  0    6389433.941    1040280.448   -2816105.571
10 0 59834   6660.00000  0    6838509.904     809384.933   -1545632.802
10 0 59834   6840.00000  0    7031469.725     540526.573    -218356.340
10 0 59834   7020.00000  0    6960200.763     250323.131    1116949.001
10 0 59834   7200.00000  0    6626811.141     -43720.375    2411120.775
10 0 59834   7380.00000  0    6043583.473    -324134.139    3616493.518
10 0 59834   7560.00000  0    5232486.282    -574399.062    4688719.896
10 0 59834   7740.00000  0    4224281.168    -779803.797    5588442.514
10 0 59834   7920.00000  0    3057273.161    -928200.724    6282748.583
10 0 59834   8100.00000  0    1775777.608   -1010621.171    6746351.069
10 0 59834   8280.00000  0     428379.886   -1021727.898    6962470.999
10 0 59834   8460.00000  0    -933944.556    -960086.315    6923400.114
10 0 59834   8640.00000  0   -2259771.882    -828245.498    6630736.235
10 0 59834   8820.00000  0   -3499167.919    -632627.200    6095301.468
10 0 59834   9000.00000  0   -4605568.772    -383227.957    5336751.791
10 0 59834   9180.00000  0   -5537548.176     -93147.384    4382877.640
10 0 59834   9360.00000  0   -6260399.753     222040.121    3268605.020
10 0 59834   9540.00000  0   -6747467.743     545045.123    2034729.405
10 0 59834   9720.00000  0   -6981172.299     857721.194     726420.854
10 0 59834   9900.00000  0   -6953675.522    1141977.962    -608451.845
10 0 59834  10080.00000  0   -6667147.098    1380703.627   -1921107.941
10 0 59834  10260.00000  0   -6133618.536    1558648.402   -3163668.053
99
